0 FENGYUN 1C DEB
1 36222U 99025DUX 13283.30327973  .00001470  00000-0  70235-3 0  2345
2 36222 098.8975 305.8263 0065462 078.2448 282.6264 14.19590911320247
0 FENGYUN 1C DEB
1 36222U 99025DUX 13285.27677193  .00001515  00000-0  72289-3 0  2357
2 36222 098.8965 307.8043 0065773 072.1981 288.6586 14.19598301320529
0 FENGYUN 1C DEB
1 36222U 99025DUX 13289.29420680  .00001590  00000-0  75797-3 0  2361
2 36222 098.8945 311.8326 0065252 061.3338 299.4882 14.19613263321091
0 FENGYUN 1C DEB
1 36222U 99025DUX 13290.84477480  .00001678  00000-0  79795-3 0  2374
2 36222 098.8978 313.4003 0066109 059.4996 301.3660 14.19621453321319
0 FENGYUN 1C DEB
1 36222U 99025DUX 13293.31156337  .00001736  00000-0  82451-3 0  2383
2 36222 098.8957 315.8762 0066496 050.3259 310.3828 14.19631610321665
0 FENGYUN 1C DEB
1 36222U 99025DUX 13294.86211766  .00001787  00000-0  84839-3 0  2391
2 36222 098.8965 317.4384 0065971 046.2662 314.4418 14.19638764321882
0 FENGYUN 1C DEB
1 36222U 99025DUX 13295.28498569  .00001869  00000-0  88661-3 0  2406
2 36222 098.8963 317.8604 0065647 045.8715 314.8589 14.19643060321948
